{
  "type" : "FeatureCollection",
  "features" : [{"type":"Feature","id":0,"geometry":{"type":"Polygon","coordinates":[[[80.203136272614472,13.068916242859586],[80.202986506495279,13.067789376665303],[80.204215503274668,13.067417819499269],[80.204291720129163,13.064473943492658],[80.20681640343588,13.064397726638163],[80.206916628599686,13.067660189096728],[80.206520300956072,13.067843109547596],[80.20644103542736,13.068172366359306],[80.206648345271674,13.068733322408718],[80.20595934490666,13.069215012929419],[80.204782556672512,13.069952792081324],[80.20462402561509,13.069660119359924],[80.204587441524836,13.068971118994853],[80.204520370692933,13.068641862183199],[80.203136272614472,13.068916242859586]]]},"properties":{"FID":0,"Id":1}}]
}