{
  "type" : "FeatureCollection",
  "features" : [{"type":"Feature","id":0,"geometry":{"type":"Point","coordinates":[80.205607000000043,13.067495000000065]},"properties":{"FID":0,"Point_ID":1,"Point_Name":"Main Building Block","Point_Type":"Building","Category":"Passenger Facility","Latitude":13.067494999999999,"Longitude":80.205607000000001,"Descriptio":"Main building used for passenger services and administration.","Status":"Active","Priority":"High","Photo_Name":"main_building.jpg","Remarks":"Core passenger and administrative facility"}},{"type":"Feature","id":1,"geometry":{"type":"Point","coordinates":[80.205043000000046,13.067519000000061]},"properties":{"FID":1,"Point_ID":2,"Point_Name":"Chennai Mofussil Bus Terminus","Point_Type":"Bus Terminus","Category":"Transport","Latitude":13.067519000000001,"Longitude":80.205043000000003,"Descriptio":"Main bus terminus connecting Chennai with other towns and cities.","Status":"Active","Priority":"High","Photo_Name":"cmbt_terminus.jpg","Remarks":"Main project location"}},{"type":"Feature","id":2,"geometry":{"type":"Point","coordinates":[80.205439000000069,13.067609000000061]},"properties":{"FID":2,"Point_ID":3,"Point_Name":"MTC Time Office","Point_Type":"Transport Office","Category":"Administration","Latitude":13.067608999999999,"Longitude":80.205438999999998,"Descriptio":"Office used for local bus timing and schedule work.","Status":"Active","Priority":"Medium","Photo_Name":"mtc_time_office.jpg","Remarks":"Supports local bus operations"}},{"type":"Feature","id":3,"geometry":{"type":"Point","coordinates":[80.20581100000004,13.067396000000031]},"properties":{"FID":3,"Point_ID":4,"Point_Name":"Tamil Nadu Tourism Development Office","Point_Type":"Government Office","Category":"Public Service","Latitude":13.067396,"Longitude":80.205810999999997,"Descriptio":"Tourism office providing travel-related information and services.","Status":"Active","Priority":"Medium","Photo_Name":"tntd_office.jpg","Remarks":"Public and tourism service facility"}},{"type":"Feature","id":4,"geometry":{"type":"Point","coordinates":[80.205602000000056,13.069288000000029]},"properties":{"FID":4,"Point_ID":5,"Point_Name":"Main Entrance","Point_Type":"Entry Point","Category":"Access","Latitude":13.069288,"Longitude":80.205601999999999,"Descriptio":"Main entry point for buses, passengers, and other vehicles.","Status":"Active","Priority":"High","Photo_Name":"main_entrance.jpg","Remarks":"Primary access point to the terminus"}},{"type":"Feature","id":5,"geometry":{"type":"Point","coordinates":[80.204931000000045,13.069712000000038]},"properties":{"FID":5,"Point_ID":6,"Point_Name":"Main Exit","Point_Type":"Exit Point","Category":"Access","Latitude":13.069712000000001,"Longitude":80.204931000000002,"Descriptio":"Main exit point for buses and other vehicles.","Status":"Active","Priority":"High","Photo_Name":"main_exit.jpg","Remarks":"Primary exit from the terminus"}},{"type":"Feature","id":6,"geometry":{"type":"Point","coordinates":[80.204885000000047,13.066677000000027]},"properties":{"FID":6,"Point_ID":7,"Point_Name":"Bus Terminal 1","Point_Type":"Boarding Area","Category":"Transport","Latitude":13.066677,"Longitude":80.204885000000004,"Descriptio":"Boarding and departure area for buses.","Status":"Active","Priority":"High","Photo_Name":"bus_terminal_01.jpg","Remarks":"Passenger boarding and departure area"}},{"type":"Feature","id":7,"geometry":{"type":"Point","coordinates":[80.205124000000069,13.066426000000035]},"properties":{"FID":7,"Point_ID":8,"Point_Name":"Bus Terminal 2","Point_Type":"Boarding Area","Category":"Transport","Latitude":13.066426,"Longitude":80.205123999999998,"Descriptio":"Boarding and departure area for buses.","Status":"Active","Priority":"High","Photo_Name":"bus_terminal_02.jpg","Remarks":"Passenger boarding and departure area"}},{"type":"Feature","id":8,"geometry":{"type":"Point","coordinates":[80.205549000000076,13.066686000000061]},"properties":{"FID":8,"Point_ID":9,"Point_Name":"Bus Terminal 3","Point_Type":"Boarding Area","Category":"Transport","Latitude":13.066686000000001,"Longitude":80.205549000000005,"Descriptio":"Boarding and departure area for buses.","Status":"Active","Priority":"High","Photo_Name":"bus_terminal_03.jpg","Remarks":"Passenger boarding and departure area"}},{"type":"Feature","id":9,"geometry":{"type":"Point","coordinates":[80.205730000000074,13.066443000000049]},"properties":{"FID":9,"Point_ID":10,"Point_Name":"Bus Terminal 4","Point_Type":"Boarding Area","Category":"Transport","Latitude":13.066443,"Longitude":80.205730000000003,"Descriptio":"Boarding and departure area for buses.","Status":"Active","Priority":"High","Photo_Name":"bus_terminal_04.jpg","Remarks":"Passenger boarding and departure area"}},{"type":"Feature","id":10,"geometry":{"type":"Point","coordinates":[80.206169000000045,13.066643000000056]},"properties":{"FID":10,"Point_ID":11,"Point_Name":"Bus Terminal 5","Point_Type":"Boarding Area","Category":"Transport","Latitude":13.066642999999999,"Longitude":80.206169000000003,"Descriptio":"Boarding and departure area for buses.","Status":"Active","Priority":"High","Photo_Name":"bus_terminal_05.jpg","Remarks":"Passenger boarding and departure area"}},{"type":"Feature","id":11,"geometry":{"type":"Point","coordinates":[80.206336000000078,13.066448000000037]},"properties":{"FID":11,"Point_ID":12,"Point_Name":"Bus Terminal 6","Point_Type":"Boarding Area","Category":"Transport","Latitude":13.066447999999999,"Longitude":80.206335999999993,"Descriptio":"Boarding and departure area for buses.","Status":"Active","Priority":"High","Photo_Name":"bus_terminal_06.jpg","Remarks":"Passenger boarding and departure area"}},{"type":"Feature","id":12,"geometry":{"type":"Point","coordinates":[80.20519900000005,13.069199000000026]},"properties":{"FID":12,"Point_ID":13,"Point_Name":"Station for Local Buses","Point_Type":"Local Bus Station","Category":"Transport","Latitude":13.069198999999999,"Longitude":80.205198999999993,"Descriptio":"Area used by local MTC buses for boarding and alighting.","Status":"Active","Priority":"High","Photo_Name":"local_bus_station.jpg","Remarks":"Local public transport connection"}},{"type":"Feature","id":13,"geometry":{"type":"Point","coordinates":[80.206137000000069,13.068129000000056]},"properties":{"FID":13,"Point_ID":14,"Point_Name":"Bike Parking","Point_Type":"Parking","Category":"Parking Facility","Latitude":13.068129000000001,"Longitude":80.206136999999998,"Descriptio":"Parking area for two-wheelers used by passengers and visitors.","Status":"Active","Priority":"Medium","Photo_Name":"bike_parking.jpg","Remarks":"Two-wheeler parking facility"}},{"type":"Feature","id":14,"geometry":{"type":"Point","coordinates":[80.205851000000052,13.068077000000073]},"properties":{"FID":14,"Point_ID":15,"Point_Name":"Car Parking","Point_Type":"Parking","Category":"Parking Facility","Latitude":13.068077000000001,"Longitude":80.205850999999996,"Descriptio":"Parking area for cars used by passengers and visitors.","Status":"Active","Priority":"Medium","Photo_Name":"car_parking.jpg","Remarks":"Passenger and visitor car parking"}},{"type":"Feature","id":15,"geometry":{"type":"Point","coordinates":[80.205994000000032,13.067676000000063]},"properties":{"FID":15,"Point_ID":16,"Point_Name":"Taxi Parking","Point_Type":"Taxi Stand","Category":"Transport","Latitude":13.067676000000001,"Longitude":80.205994000000004,"Descriptio":"Waiting and parking area for taxis serving the terminus.","Status":"Active","Priority":"Medium","Photo_Name":"taxi_parking.jpg","Remarks":"Taxi pickup and waiting facility"}},{"type":"Feature","id":16,"geometry":{"type":"Point","coordinates":[80.206087000000082,13.064617000000055]},"properties":{"FID":16,"Point_ID":17,"Point_Name":"Maintenance Shed","Point_Type":"Workshop","Category":"Operations","Latitude":13.064617,"Longitude":80.206086999999997,"Descriptio":"Shed used for bus repair and regular maintenance work.","Status":"Active","Priority":"Low","Photo_Name":"maintenance_shed.jpg","Remarks":"Operational area with limited passenger relevance"}},{"type":"Feature","id":17,"geometry":{"type":"Point","coordinates":[80.206504000000052,13.068693000000053]},"properties":{"FID":17,"Point_ID":18,"Point_Name":"Entrance for Parking","Point_Type":"Entry Point","Category":"Access","Latitude":13.068693,"Longitude":80.206503999999995,"Descriptio":"Entry point for vehicles going to the parking area.","Status":"Active","Priority":"Medium","Photo_Name":"parking_entrance.jpg","Remarks":"Vehicle access to parking facilities"}},{"type":"Feature","id":18,"geometry":{"type":"Point","coordinates":[80.205800000000067,13.069156000000021]},"properties":{"FID":18,"Point_ID":19,"Point_Name":"Exit for Parking","Point_Type":"Exit Point","Category":"Access","Latitude":13.069156,"Longitude":80.205799999999996,"Descriptio":"Exit point for vehicles leaving the parking area.","Status":"Active","Priority":"Medium","Photo_Name":"parking_exit.jpg","Remarks":"Vehicle exit from parking facilities"}},{"type":"Feature","id":19,"geometry":{"type":"Point","coordinates":[80.205932000000075,13.06726800000007]},"properties":{"FID":19,"Point_ID":20,"Point_Name":"Public Restroom","Point_Type":"Restroom","Category":"Passenger Facility","Latitude":13.067268,"Longitude":80.205932000000004,"Descriptio":"Public restroom available for passengers and visitors.","Status":"Active","Priority":"High","Photo_Name":"public_restroom.jpg","Remarks":"Important passenger convenience facility"}},{"type":"Feature","id":20,"geometry":{"type":"Point","coordinates":[80.205645000000061,13.064979000000051]},"properties":{"FID":20,"Point_ID":21,"Point_Name":"Idle Bus Parking","Point_Type":"Bus Parking","Category":"Operations","Latitude":13.064978999999999,"Longitude":80.205645000000004,"Descriptio":"Parking area for buses waiting for their next trip.","Status":"Active","Priority":"Medium","Photo_Name":"idle_bus_parking.jpg","Remarks":"Bus holding and staging area"}},{"type":"Feature","id":21,"geometry":{"type":"Point","coordinates":[80.205070000000035,13.064633000000072]},"properties":{"FID":21,"Point_ID":22,"Point_Name":"Fuel Filling Station","Point_Type":"Fuel Facility","Category":"Operations","Latitude":13.064633000000001,"Longitude":80.205070000000006,"Descriptio":"Fuel station used for refuelling buses.","Status":"Active","Priority":"Low","Photo_Name":"fuel_station.jpg","Remarks":"Operational facility with restricted public use"}},{"type":"Feature","id":22,"geometry":{"type":"Point","coordinates":[80.205530000000067,13.064594000000056]},"properties":{"FID":22,"Point_ID":23,"Point_Name":"Washing Yard","Point_Type":"Bus Washing Area","Category":"Operations","Latitude":13.064594,"Longitude":80.205529999999996,"Descriptio":"Area used for washing and cleaning buses.","Status":"Active","Priority":"Low","Photo_Name":"washing_yard.jpg","Remarks":"Operational bus cleaning area"}},{"type":"Feature","id":23,"geometry":{"type":"Point","coordinates":[80.204213000000038,13.068274000000031]},"properties":{"FID":23,"Point_ID":24,"Point_Name":"CMBT Metro","Point_Type":"Metro Station","Category":"Transport Connectivity","Latitude":13.068274000000001,"Longitude":80.204212999999996,"Descriptio":"Metro station next to CMBT for passenger connectivity.","Status":"Active","Priority":"High","Photo_Name":"cmbt_metro.jpg","Remarks":"Important multimodal transport connection"}},{"type":"Feature","id":24,"geometry":{"type":"Point","coordinates":[80.205471000000045,13.064117000000067]},"properties":{"FID":24,"Point_ID":25,"Point_Name":"Water Treatment Plant","Point_Type":"Utility Facility","Category":"Utilities","Latitude":13.064117,"Longitude":80.205471000000003,"Descriptio":"Water treatment facility located near the bus terminus.","Status":"Active","Priority":"Low","Photo_Name":"water_treatment_plant.jpg","Remarks":"Utility facility not intended for passenger access"}},{"type":"Feature","id":25,"geometry":{"type":"Point","coordinates":[80.20612200000005,13.068717000000049]},"properties":{"FID":25,"Point_ID":26,"Point_Name":"CMBT Roof Garden","Point_Type":"Garden","Category":"Recreation","Latitude":13.068716999999999,"Longitude":80.206121999999993,"Descriptio":"Roof garden developed as a green space inside CMBT.","Status":"Active","Priority":"Medium","Photo_Name":"cmbt_roof_garden.jpg","Remarks":"Green and recreational amenity"}},{"type":"Feature","id":26,"geometry":{"type":"Point","coordinates":[80.207014000000072,13.069276000000059]},"properties":{"FID":26,"Point_ID":27,"Point_Name":"Corporation Park of Chennai","Point_Type":"Park","Category":"Recreation","Latitude":13.069276,"Longitude":80.207014000000001,"Descriptio":"Public park located near the bus terminus.","Status":"Active","Priority":"Low","Photo_Name":"corporation_park.jpg","Remarks":"Nearby recreational landmark"}},{"type":"Feature","id":27,"geometry":{"type":"Point","coordinates":[80.20835500000004,13.06865300000004]},"properties":{"FID":27,"Point_ID":28,"Point_Name":"EB Station","Point_Type":"Electrical Facility","Category":"Utilities","Latitude":13.068652999999999,"Longitude":80.208354999999997,"Descriptio":"Electricity Board facility near the bus terminus.","Status":"Active","Priority":"Low","Photo_Name":"eb_station.jpg","Remarks":"Utility infrastructure with restricted public access"}},{"type":"Feature","id":28,"geometry":{"type":"Point","coordinates":[80.205678000000034,13.06973000000005]},"properties":{"FID":28,"Point_ID":29,"Point_Name":"Election Commission Office","Point_Type":"Government Office","Category":"Public Service","Latitude":13.06973,"Longitude":80.205678000000006,"Descriptio":"Government office related to election administration.","Status":"Active","Priority":"Low","Photo_Name":"election_commission_office.jpg","Remarks":"Nearby government office landmark"}},{"type":"Feature","id":29,"geometry":{"type":"Point","coordinates":[80.204951000000051,13.068689000000063]},"properties":{"FID":29,"Point_ID":30,"Point_Name":"CMBT Aavin Parlour","Point_Type":"Food Outlet","Category":"Passenger Facility","Latitude":13.068688999999999,"Longitude":80.204950999999994,"Descriptio":"Aavin outlet providing milk products, snacks, and drinks.","Status":"Active","Priority":"Medium","Photo_Name":"aavin_parlour.jpg","Remarks":"Passenger refreshment facility"}},{"type":"Feature","id":30,"geometry":{"type":"Point","coordinates":[80.204303000000039,13.068002000000035]},"properties":{"FID":30,"Point_ID":31,"Point_Name":"CMWSSB Metro Water Treatment Plant","Point_Type":"Utility Facility","Category":"Utilities","Latitude":13.068002,"Longitude":80.204302999999996,"Descriptio":"Metro Water facility for water and wastewater management.","Status":"Active","Priority":"Low","Photo_Name":"cmwssb_treatment_plant.jpg","Remarks":"Utility facility with limited public access"}},{"type":"Feature","id":31,"geometry":{"type":"Point","coordinates":[80.203744000000086,13.068728000000021]},"properties":{"FID":31,"Point_ID":32,"Point_Name":"IndusInd Bank ATM","Point_Type":"ATM","Category":"Banking Facility","Latitude":13.068728,"Longitude":80.203744,"Descriptio":"ATM providing cash withdrawal and basic banking services.","Status":"Active","Priority":"Medium","Photo_Name":"indusind_atm.jpg","Remarks":"Passenger banking facility"}},{"type":"Feature","id":32,"geometry":{"type":"Point","coordinates":[80.203719000000035,13.068440000000066]},"properties":{"FID":32,"Point_ID":33,"Point_Name":"SIMS Pharmacy","Point_Type":"Pharmacy","Category":"Healthcare Facility","Latitude":13.068440000000001,"Longitude":80.203719000000007,"Descriptio":"Pharmacy providing medicines and basic healthcare products.","Status":"Active","Priority":"Medium","Photo_Name":"sims_pharmacy.jpg","Remarks":"Healthcare support facility"}},{"type":"Feature","id":33,"geometry":{"type":"Point","coordinates":[80.203579000000047,13.068286000000057]},"properties":{"FID":33,"Point_ID":34,"Point_Name":"Bank of Baroda ATM","Point_Type":"ATM","Category":"Banking Facility","Latitude":13.068286000000001,"Longitude":80.203579000000005,"Descriptio":"ATM providing cash withdrawal and basic banking services.","Status":"Active","Priority":"Medium","Photo_Name":"bob_atm.jpg","Remarks":"Passenger banking facility"}},{"type":"Feature","id":34,"geometry":{"type":"Point","coordinates":[80.208282000000054,13.064685000000054]},"properties":{"FID":34,"Point_ID":35,"Point_Name":"SAF Games Park","Point_Type":"Sports Facility","Category":"Recreation","Latitude":13.064685000000001,"Longitude":80.208281999999997,"Descriptio":"Public sports and recreation area near CMBT.","Status":"Active","Priority":"Low","Photo_Name":"saf_games_park.jpg","Remarks":"Nearby recreational landmark"}},{"type":"Feature","id":35,"geometry":{"type":"Point","coordinates":[80.209505000000036,13.065286000000071]},"properties":{"FID":35,"Point_ID":36,"Point_Name":"Green World Management and Training Institute","Point_Type":"Training Institute","Category":"Education","Latitude":13.065286,"Longitude":80.209504999999993,"Descriptio":"Training institute located near the bus terminus.","Status":"Active","Priority":"Low","Photo_Name":"green_world_training.jpg","Remarks":"Nearby educational landmark"}},{"type":"Feature","id":36,"geometry":{"type":"Point","coordinates":[80.20140200000003,13.064779000000044]},"properties":{"FID":36,"Point_ID":37,"Point_Name":"Sewage Treatment Plant","Point_Type":"Utility Facility","Category":"Utilities","Latitude":13.064779,"Longitude":80.201402000000002,"Descriptio":"Sewage treatment facility located near the bus terminus.","Status":"Active","Priority":"Low","Photo_Name":"sewage_treatment_plant.jpg","Remarks":"Utility infrastructure not intended for passenger navigation"}},{"type":"Feature","id":37,"geometry":{"type":"Point","coordinates":[80.19843300000008,13.068125000000066]},"properties":{"FID":37,"Point_ID":38,"Point_Name":"Koyambedu Flower Market","Point_Type":"Market","Category":"Commercial","Latitude":13.068125,"Longitude":80.198432999999994,"Descriptio":"Flower market located near the Koyambedu bus terminus.","Status":"Active","Priority":"Medium","Photo_Name":"koyambedu_flower_market.jpg","Remarks":"Major nearby commercial landmark"}},{"type":"Feature","id":38,"geometry":{"type":"Point","coordinates":[80.195025000000044,13.067854000000068]},"properties":{"FID":38,"Point_ID":39,"Point_Name":"Wholesale Market Complex – Fruits & Vegetables","Point_Type":"Wholesale Market","Category":"Commercial","Latitude":13.067854000000001,"Longitude":80.195025000000001,"Descriptio":"Wholesale market for fruits and vegetables at Koyambedu.","Status":"Active","Priority":"Medium","Photo_Name":"wholesale_market.jpg","Remarks":"Major nearby commercial destination"}},{"type":"Feature","id":39,"geometry":{"type":"Point","coordinates":[80.194152000000031,13.069693000000029]},"properties":{"FID":39,"Point_ID":40,"Point_Name":"Koyambedu Market Management Committee","Point_Type":"Administrative Office","Category":"Administration","Latitude":13.069692999999999,"Longitude":80.194152000000003,"Descriptio":"Office managing activities in the Koyambedu market complex.","Status":"Active","Priority":"Low","Photo_Name":"market_management_committee.jpg","Remarks":"Nearby market administration facility"}},{"type":"Feature","id":40,"geometry":{"type":"Point","coordinates":[80.199832000000072,13.075848000000065]},"properties":{"FID":40,"Point_ID":41,"Point_Name":"Koyambedu Eco Park","Point_Type":"Park","Category":"Recreation","Latitude":13.075848000000001,"Longitude":80.199832000000001,"Descriptio":"Public park and green space in the Koyambedu area.","Status":"Active","Priority":"Low","Photo_Name":"koyambedu_eco_park.jpg","Remarks":"Nearby green-space landmark"}},{"type":"Feature","id":41,"geometry":{"type":"Point","coordinates":[80.195107000000064,13.073219000000051]},"properties":{"FID":41,"Point_ID":42,"Point_Name":"Koyambedu Metro","Point_Type":"Metro Station","Category":"Transport Connectivity","Latitude":13.073219,"Longitude":80.195106999999993,"Descriptio":"Metro station serving the Koyambedu market area.","Status":"Active","Priority":"Medium","Photo_Name":"koyambedu_metro.jpg","Remarks":"Nearby public transport connection"}}]
}