{
  "type" : "FeatureCollection",
  "features" : [{"type":"Feature","id":1,"geometry":{"type":"LineString","coordinates":[[80.204931000000045,13.069712000000038],[80.204836457000056,13.069600853000054],[80.204776380000055,13.069009938000022],[80.204811545000041,13.068744607000042],[80.204843896000057,13.06851782800004],[80.204715486000055,13.068410651000022],[80.204695662000063,13.067712451000034],[80.204703155000061,13.067427739000038],[80.20478277400008,13.067087083000047],[80.204810138000084,13.066672399000026],[80.204885000000047,13.066677000000027]]},"properties":{"OBJECTID":1,"Shape_Length":0.0032275831238196355}},{"type":"Feature","id":3,"geometry":{"type":"LineString","coordinates":[[80.206336000000078,13.066448000000037],[80.206339000000071,13.067195474000073],[80.206661174000033,13.067230438000024],[80.206656612000074,13.067611378000038],[80.20576957600008,13.067697466000027],[80.20573710900004,13.06907607100004],[80.205800000000067,13.069156000000021]]},"properties":{"OBJECTID":3,"Shape_Length":0.0038244090393733748}},{"type":"Feature","id":4,"geometry":{"type":"LineString","coordinates":[[80.205070000000035,13.064633000000072],[80.205069644000048,13.064776838000057],[80.204834690000041,13.064772752000067],[80.204722163000042,13.064796280000053],[80.204690451000033,13.064844360000052],[80.204674116000035,13.064978042000064],[80.204667946000029,13.065073504000054],[80.204622086000029,13.065123659000051],[80.20460759100007,13.065164548000041],[80.204614665000065,13.065683190000072],[80.204622936000078,13.066700274000027],[80.204597257000046,13.066995749000057],[80.204540076000058,13.067290270000058],[80.204483812000035,13.067437577000021],[80.204370391000054,13.067609755000035],[80.204137027000058,13.067843119000031],[80.204053267000063,13.067912683000031],[80.203792042000032,13.06804427700007],[80.203037251000069,13.068171190000044]]},"properties":{"OBJECTID":4,"Shape_Length":0.0048861389243526031}}]
}